[{"OBJECT_NAME":"ONEWEB-0651","OBJECT_ID":"2023-043AL","EPOCH":"2026-02-05T03:51:43.048224","MEAN_MOTION":13.15548563,"ECCENTRICITY":0.00017302,"INCLINATION":87.8988,"RA_OF_ASC_NODE":285.5855,"ARG_OF_PERICENTER":71.1832,"MEAN_ANOMALY":288.9486,"EPHEMERIS_TYPE":0,"CLASSIFICATION_TYPE":"U","NORAD_CAT_ID":56080,"ELEMENT_SET_NO":999,"REV_AT_EPOCH":14026,"BSTAR":-0.00013846995,"MEAN_MOTION_DOT":-3.9e-7,"MEAN_MOTION_DDOT":0},{"OBJECT_NAME":"ONEWEB-0718","OBJECT_ID":"2023-043AM","EPOCH":"2026-02-05T01:55:20.382528","MEAN_MOTION":13.15549441,"ECCENTRICITY":0.0001858,"INCLINATION":87.8988,"RA_OF_ASC_NODE":285.5814,"ARG_OF_PERICENTER":95.9641,"MEAN_ANOMALY":264.1702,"EPHEMERIS_TYPE":0,"CLASSIFICATION_TYPE":"U","NORAD_CAT_ID":56081,"ELEMENT_SET_NO":999,"REV_AT_EPOCH":13906,"BSTAR":5.9817304e-5,"MEAN_MOTION_DOT":3.5e-7,"MEAN_MOTION_DDOT":0},{"OBJECT_NAME":"ONEWEB-0561","OBJECT_ID":"2023-068A","EPOCH":"2026-02-05T03:41:18.090240","MEAN_MOTION":13.20770108,"ECCENTRICITY":0.00015709,"INCLINATION":87.9214,"RA_OF_ASC_NODE":300.7962,"ARG_OF_PERICENTER":62.1087,"MEAN_ANOMALY":298.0205,"EPHEMERIS_TYPE":0,"CLASSIFICATION_TYPE":"U","NORAD_CAT_ID":56710,"ELEMENT_SET_NO":999,"REV_AT_EPOCH":13207,"BSTAR":6.4230243e-5,"MEAN_MOTION_DOT":3.9e-7,"MEAN_MOTION_DDOT":0},{"OBJECT_NAME":"ONEWEB-0668","OBJECT_ID":"2023-068B","EPOCH":"2026-02-05T01:00:47.420928","MEAN_MOTION":13.16593835,"ECCENTRICITY":0.0002074,"INCLINATION":87.9015,"RA_OF_ASC_NODE":255.0669,"ARG_OF_PERICENTER":92.2999,"MEAN_ANOMALY":267.837,"EPHEMERIS_TYPE":0,"CLASSIFICATION_TYPE":"U","NORAD_CAT_ID":56711,"ELEMENT_SET_NO":999,"REV_AT_EPOCH":13439,"BSTAR":0.00030349909,"MEAN_MOTION_DOT":1.29e-6,"MEAN_MOTION_DDOT":0},{"OBJECT_NAME":"ONEWEB-0676","OBJECT_ID":"2023-068C","EPOCH":"2026-02-05T01:12:10.441440","MEAN_MOTION":13.16595755,"ECCENTRICITY":0.00015736,"INCLINATION":87.9005,"RA_OF_ASC_NODE":255.0815,"ARG_OF_PERICENTER":75.1972,"MEAN_ANOMALY":284.9334,"EPHEMERIS_TYPE":0,"CLASSIFICATION_TYPE":"U","NORAD_CAT_ID":56712,"ELEMENT_SET_NO":999,"REV_AT_EPOCH":13431,"BSTAR":0.00045317164,"MEAN_MOTION_DOT":1.86e-6,"MEAN_MOTION_DDOT":0},{"OBJECT_NAME":"ONEWEB-0677","OBJECT_ID":"2023-068D","EPOCH":"2026-02-04T23:47:12.317856","MEAN_MOTION":13.20769056,"ECCENTRICITY":0.00018299,"INCLINATION":87.9221,"RA_OF_ASC_NODE":300.8183,"ARG_OF_PERICENTER":75.857,"MEAN_ANOMALY":284.2766,"EPHEMERIS_TYPE":0,"CLASSIFICATION_TYPE":"U","NORAD_CAT_ID":56713,"ELEMENT_SET_NO":999,"REV_AT_EPOCH":13235,"BSTAR":-9.635843e-6,"MEAN_MOTION_DOT":9.0e-8,"MEAN_MOTION_DDOT":0},{"OBJECT_NAME":"ONEWEB-0678","OBJECT_ID":"2023-068E","EPOCH":"2026-02-05T02:59:13.861536","MEAN_MOTION":13.15547598,"ECCENTRICITY":0.00012769,"INCLINATION":87.8991,"RA_OF_ASC_NODE":285.5523,"ARG_OF_PERICENTER":76.9926,"MEAN_ANOMALY":283.1347,"EPHEMERIS_TYPE":0,"CLASSIFICATION_TYPE":"U","NORAD_CAT_ID":56714,"ELEMENT_SET_NO":999,"REV_AT_EPOCH":13192,"BSTAR":9.3209663e-5,"MEAN_MOTION_DOT":4.8e-7,"MEAN_MOTION_DDOT":0},{"OBJECT_NAME":"ONEWEB-0679","OBJECT_ID":"2023-068F","EPOCH":"2026-02-05T00:12:55.080576","MEAN_MOTION":13.16594628,"ECCENTRICITY":0.00020693,"INCLINATION":87.9015,"RA_OF_ASC_NODE":255.0723,"ARG_OF_PERICENTER":78.7354,"MEAN_ANOMALY":281.4009,"EPHEMERIS_TYPE":0,"CLASSIFICATION_TYPE":"U","NORAD_CAT_ID":56715,"ELEMENT_SET_NO":999,"REV_AT_EPOCH":13433,"BSTAR":-0.00016112872,"MEAN_MOTION_DOT":-4.9e-7,"MEAN_MOTION_DDOT":0},{"OBJECT_NAME":"ONEWEB-0680","OBJECT_ID":"2023-068G","EPOCH":"2026-02-05T00:09:18.664128","MEAN_MOTION":13.21823837,"ECCENTRICITY":0.0002144,"INCLINATION":87.9198,"RA_OF_ASC_NODE":270.33,"ARG_OF_PERICENTER":84.8929,"MEAN_ANOMALY":275.245,"EPHEMERIS_TYPE":0,"CLASSIFICATION_TYPE":"U","NORAD_CAT_ID":56716,"ELEMENT_SET_NO":999,"REV_AT_EPOCH":13363,"BSTAR":-7.8628793e-5,"MEAN_MOTION_DOT":-1.9e-7,"MEAN_MOTION_DDOT":0},{"OBJECT_NAME":"ONEWEB-0681","OBJECT_ID":"2023-068H","EPOCH":"2026-02-05T01:28:40.132704","MEAN_MOTION":13.21826456,"ECCENTRICITY":0.00018277,"INCLINATION":87.9191,"RA_OF_ASC_NODE":270.3303,"ARG_OF_PERICENTER":48.4238,"MEAN_ANOMALY":311.7052,"EPHEMERIS_TYPE":0,"CLASSIFICATION_TYPE":"U","NORAD_CAT_ID":56717,"ELEMENT_SET_NO":999,"REV_AT_EPOCH":13363,"BSTAR":0.00011328771,"MEAN_MOTION_DOT":6.0e-7,"MEAN_MOTION_DDOT":0},{"OBJECT_NAME":"ONEWEB-0682","OBJECT_ID":"2023-068J","EPOCH":"2026-02-05T03:36:52.496640","MEAN_MOTION":13.1554797,"ECCENTRICITY":0.00020137,"INCLINATION":87.8986,"RA_OF_ASC_NODE":285.5566,"ARG_OF_PERICENTER":81.9696,"MEAN_ANOMALY":278.1663,"EPHEMERIS_TYPE":0,"CLASSIFICATION_TYPE":"U","NORAD_CAT_ID":56718,"ELEMENT_SET_NO":999,"REV_AT_EPOCH":13209,"BSTAR":0.00017736512,"MEAN_MOTION_DOT":8.0e-7,"MEAN_MOTION_DDOT":0},{"OBJECT_NAME":"ONEWEB-0683","OBJECT_ID":"2023-068K","EPOCH":"2026-02-04T17:10:32.953152","MEAN_MOTION":13.15549067,"ECCENTRICITY":0.00017972,"INCLINATION":87.8994,"RA_OF_ASC_NODE":285.6329,"ARG_OF_PERICENTER":83.8882,"MEAN_ANOMALY":276.2453,"EPHEMERIS_TYPE":0,"CLASSIFICATION_TYPE":"U","NORAD_CAT_ID":56719,"ELEMENT_SET_NO":999,"REV_AT_EPOCH":13200,"BSTAR":-0.00018040958,"MEAN_MOTION_DOT":-5.5e-7,"MEAN_MOTION_DDOT":0},{"OBJECT_NAME":"ONEWEB-0684","OBJECT_ID":"2023-068L","EPOCH":"2026-02-05T02:29:33.846144","MEAN_MOTION":13.1554871,"ECCENTRICITY":8.117e-5,"INCLINATION":87.8994,"RA_OF_ASC_NODE":285.5488,"ARG_OF_PERICENTER":144.9132,"MEAN_ANOMALY":215.2052,"EPHEMERIS_TYPE":0,"CLASSIFICATION_TYPE":"U","NORAD_CAT_ID":56720,"ELEMENT_SET_NO":999,"REV_AT_EPOCH":13188,"BSTAR":-0.00031977109,"MEAN_MOTION_DOT":-1.08e-6,"MEAN_MOTION_DDOT":0},{"OBJECT_NAME":"ONEWEB-0686","OBJECT_ID":"2023-068M","EPOCH":"2026-02-05T01:05:13.776576","MEAN_MOTION":13.16593318,"ECCENTRICITY":0.00016863,"INCLINATION":87.8993,"RA_OF_ASC_NODE":255.1095,"ARG_OF_PERICENTER":99.2598,"MEAN_ANOMALY":260.8723,"EPHEMERIS_TYPE":0,"CLASSIFICATION_TYPE":"U","NORAD_CAT_ID":56721,"ELEMENT_SET_NO":999,"REV_AT_EPOCH":13432,"BSTAR":-0.0011640774,"MEAN_MOTION_DOT":-4.32e-6,"MEAN_MOTION_DDOT":0},{"OBJECT_NAME":"ONEWEB-0694","OBJECT_ID":"2023-068N","EPOCH":"2026-02-05T01:14:27.620448","MEAN_MOTION":13.16595208,"ECCENTRICITY":0.00019642,"INCLINATION":87.9016,"RA_OF_ASC_NODE":255.0476,"ARG_OF_PERICENTER":91.429,"MEAN_ANOMALY":268.7066,"EPHEMERIS_TYPE":0,"CLASSIFICATION_TYPE":"U","NORAD_CAT_ID":56722,"ELEMENT_SET_NO":999,"REV_AT_EPOCH":13438,"BSTAR":0.00031573872,"MEAN_MOTION_DOT":1.34e-6,"MEAN_MOTION_DDOT":0},{"OBJECT_NAME":"ONEWEB-0696","OBJECT_ID":"2023-068P","EPOCH":"2026-02-05T03:17:28.311072","MEAN_MOTION":13.15548899,"ECCENTRICITY":0.00010686,"INCLINATION":87.8983,"RA_OF_ASC_NODE":285.5908,"ARG_OF_PERICENTER":83.6425,"MEAN_ANOMALY":276.4827,"EPHEMERIS_TYPE":0,"CLASSIFICATION_TYPE":"U","NORAD_CAT_ID":56723,"ELEMENT_SET_NO":999,"REV_AT_EPOCH":13200,"BSTAR":0.00035352126,"MEAN_MOTION_DOT":1.46e-6,"MEAN_MOTION_DDOT":0},{"OBJECT_NAME":"ONEWEB-0703","OBJECT_ID":"2023-068Q","EPOCH":"2026-02-05T03:31:10.909920","MEAN_MOTION":13.15549048,"ECCENTRICITY":8.375e-5,"INCLINATION":87.8983,"RA_OF_ASC_NODE":285.57,"ARG_OF_PERICENTER":40.6389,"MEAN_ANOMALY":319.4804,"EPHEMERIS_TYPE":0,"CLASSIFICATION_TYPE":"U","NORAD_CAT_ID":56724,"ELEMENT_SET_NO":999,"REV_AT_EPOCH":13189,"BSTAR":0.00026808975,"MEAN_MOTION_DOT":1.14e-6,"MEAN_MOTION_DDOT":0}]
