ONEWEB-0651             
1 56080U 23043AL  26036.16091491 -.00000039  00000+0 -13847-3 0  9998
2 56080  87.8988 285.5855 0001730  71.1832 288.9486 13.15548563140269
ONEWEB-0718             
1 56081U 23043AM  26036.08009702  .00000035  00000+0  59817-4 0  9996
2 56081  87.8988 285.5814 0001858  95.9641 264.1702 13.15549441139067
ONEWEB-0561             
1 56710U 23068A   26036.15368160  .00000039  00000+0  64230-4 0  9995
2 56710  87.9214 300.7962 0001570  62.1087 298.0205 13.20770108132074
ONEWEB-0668             
1 56711U 23068B   26036.04221552  .00000129  00000+0  30350-3 0  9992
2 56711  87.9015 255.0669 0002074  92.2999 267.8370 13.16593835134395
ONEWEB-0676             
1 56712U 23068C   26036.05012085  .00000186  00000+0  45317-3 0  9995
2 56712  87.9005 255.0815 0001573  75.1972 284.9334 13.16595755134317
ONEWEB-0677             
1 56713U 23068D   26035.99111479  .00000009  00000+0 -96358-5 0  9993
2 56713  87.9221 300.8183 0001829  75.8570 284.2766 13.20769056132356
ONEWEB-0678             
1 56714U 23068E   26036.12446599  .00000048  00000+0  93210-4 0  9999
2 56714  87.8991 285.5523 0001276  76.9926 283.1347 13.15547598131924
ONEWEB-0679             
1 56715U 23068F   26036.00897084 -.00000049  00000+0 -16113-3 0  9995
2 56715  87.9015 255.0723 0002069  78.7354 281.4009 13.16594628134334
ONEWEB-0680             
1 56716U 23068G   26036.00646602 -.00000019  00000+0 -78629-4 0  9992
2 56716  87.9198 270.3300 0002144  84.8929 275.2450 13.21823837133634
ONEWEB-0681             
1 56717U 23068H   26036.06157561  .00000060  00000+0  11329-3 0  9997
2 56717  87.9191 270.3303 0001827  48.4238 311.7052 13.21826456133631
ONEWEB-0682             
1 56718U 23068J   26036.15060760  .00000080  00000+0  17737-3 0  9993
2 56718  87.8986 285.5566 0002013  81.9696 278.1663 13.15547970132097
ONEWEB-0683             
1 56719U 23068K   26035.71565918 -.00000055  00000+0 -18041-3 0  9993
2 56719  87.8994 285.6329 0001797  83.8882 276.2453 13.15549067132007
ONEWEB-0684             
1 56720U 23068L   26036.10386396 -.00000108  00000+0 -31977-3 0  9992
2 56720  87.8994 285.5488 0000811 144.9132 215.2052 13.15548710131884
ONEWEB-0686             
1 56721U 23068M   26036.04529834 -.00000432  00000+0 -11641-2 0  9997
2 56721  87.8993 255.1095 0001686  99.2598 260.8723 13.16593318134328
ONEWEB-0694             
1 56722U 23068N   26036.05170857  .00000134  00000+0  31574-3 0  9991
2 56722  87.9016 255.0476 0001964  91.4290 268.7066 13.16595208134383
ONEWEB-0696             
1 56723U 23068P   26036.13713323  .00000146  00000+0  35352-3 0  9993
2 56723  87.8983 285.5908 0001068  83.6425 276.4827 13.15548899132003
ONEWEB-0703             
1 56724U 23068Q   26036.14665405  .00000114  00000+0  26809-3 0  9994
2 56724  87.8983 285.5700 0000837  40.6389 319.4804 13.15549048131895
